{
  "type": "FeatureCollection",
  "features": [
    {
      "type": "Feature",
      "properties": {
        "norad_id": 34396,
        "name": "COSMOS 2251 DEB",
        "group": "cosmos-2251-debris",
        "lat": -42.193084965460784,
        "lon": 79.86555069998002,
        "alt_km": 654.9353379065706,
        "timestamp": "2025-12-27T15:27:11.588636+00:00",
        "meta_object_name": "COSMOS 2251 DEB",
        "meta_object_id": "1993-036QM",
        "meta_epoch": "2025-12-27T07:46:26.686272",
        "meta_mean_motion": 14.7480598,
        "meta_eccentricity": 0.00042118,
        "meta_inclination": 74.0289,
        "meta_ra_of_asc_node": 95.5382,
        "meta_arg_of_pericenter": 128.0985,
        "meta_mean_anomaly": 289.5971,
        "meta_ephemeris_type": 0,
        "meta_classification_type": "U",
        "meta_norad_cat_id": 34396,
        "meta_element_set_no": 999,
        "meta_rev_at_epoch": 88561,
        "meta_bstar": 0.002191359,
        "meta_mean_motion_dot": 0.00014679,
        "meta_mean_motion_ddot": 0,
        "tle_line1": "1 34396U 93036QM  25361.32391998  .00014679  00000+0  21914-2 0  9992",
        "tle_line2": "2 34396  74.0289  95.5382 0004211 128.0985 289.5971 14.74805980885615"
      },
      "geometry": {
        "type": "Point",
        "coordinates": [
          79.86555069998002,
          -42.193084965460784
        ]
      }
    },
    {
      "type": "Feature",
      "properties": {
        "norad_id": 34400,
        "name": "COSMOS 2251 DEB",
        "group": "cosmos-2251-debris",
        "lat": 28.58990774375679,
        "lon": -0.807778038384244,
        "alt_km": 385.67677977166113,
        "timestamp": "2025-12-27T15:27:11.588647+00:00",
        "meta_object_name": "COSMOS 2251 DEB",
        "meta_object_id": "1993-036QR",
        "meta_epoch": "2025-12-27T06:05:43.188576",
        "meta_mean_motion": 15.6065256,
        "meta_eccentricity": 0.00035997,
        "meta_inclination": 73.9626,
        "meta_ra_of_asc_node": 351.0455,
        "meta_arg_of_pericenter": 183.9533,
        "meta_mean_anomaly": 176.1657,
        "meta_ephemeris_type": 0,
        "meta_classification_type": "U",
        "meta_norad_cat_id": 34400,
        "meta_element_set_no": 999,
        "meta_rev_at_epoch": 90200,
        "meta_bstar": 0.0039636357,
        "meta_mean_motion_dot": 0.00342862,
        "meta_mean_motion_ddot": 0,
        "tle_line1": "1 34400U 93036QR  25361.25397209  .00342862  00000+0  39636-2 0  9999",
        "tle_line2": "2 34400  73.9626 351.0455 0003599 183.9533 176.1657 15.60652560902007"
      },
      "geometry": {
        "type": "Point",
        "coordinates": [
          -0.807778038384244,
          28.58990774375679
        ]
      }
    },
    {
      "type": "Feature",
      "properties": {
        "norad_id": 34409,
        "name": "COSMOS 2251 DEB",
        "group": "cosmos-2251-debris",
        "lat": 37.21997383441507,
        "lon": -68.93282586107895,
        "alt_km": 659.5833157866728,
        "timestamp": "2025-12-27T15:27:11.588657+00:00",
        "meta_object_name": "COSMOS 2251 DEB",
        "meta_object_id": "1993-036RA",
        "meta_epoch": "2025-12-26T13:43:20.964288",
        "meta_mean_motion": 14.58060964,
        "meta_eccentricity": 0.0080461,
        "meta_inclination": 74.0637,
        "meta_ra_of_asc_node": 280.5674,
        "meta_arg_of_pericenter": 351.315,
        "meta_mean_anomaly": 181.8118,
        "meta_ephemeris_type": 0,
        "meta_classification_type": "U",
        "meta_norad_cat_id": 34409,
        "meta_element_set_no": 999,
        "meta_rev_at_epoch": 89394,
        "meta_bstar": 0.00027355,
        "meta_mean_motion_dot": 1.284e-05,
        "meta_mean_motion_ddot": 0,
        "tle_line1": "1 34409U 93036RA  25360.57177042  .00001284  00000+0  27355-3 0  9999",
        "tle_line2": "2 34409  74.0637 280.5674 0080461 351.3150 181.8118 14.58060964893942"
      },
      "geometry": {
        "type": "Point",
        "coordinates": [
          -68.93282586107895,
          37.21997383441507
        ]
      }
    },
    {
      "type": "Feature",
      "properties": {
        "norad_id": 34410,
        "name": "COSMOS 2251 DEB",
        "group": "cosmos-2251-debris",
        "lat": 39.99546010667557,
        "lon": 35.77102856620183,
        "alt_km": 496.3407463999856,
        "timestamp": "2025-12-27T15:27:11.588667+00:00",
        "meta_object_name": "COSMOS 2251 DEB",
        "meta_object_id": "1993-036RB",
        "meta_epoch": "2025-12-26T15:17:57.460704",
        "meta_mean_motion": 15.20204778,
        "meta_eccentricity": 0.0021247,
        "meta_inclination": 73.7358,
        "meta_ra_of_asc_node": 232.0969,
        "meta_arg_of_pericenter": 70.7601,
        "meta_mean_anomaly": 321.2169,
        "meta_ephemeris_type": 0,
        "meta_classification_type": "U",
        "meta_norad_cat_id": 34410,
        "meta_element_set_no": 999,
        "meta_rev_at_epoch": 89985,
        "meta_bstar": 0.0022532,
        "meta_mean_motion_dot": 0.00049424,
        "meta_mean_motion_ddot": 0,
        "tle_line1": "1 34410U 93036RB  25360.63747061  .00049424  00000+0  22532-2 0  9991",
        "tle_line2": "2 34410  73.7358 232.0969 0021247  70.7601 321.2169 15.20204778899854"
      },
      "geometry": {
        "type": "Point",
        "coordinates": [
          35.77102856620183,
          39.99546010667557
        ]
      }
    },
    {
      "type": "Feature",
      "properties": {
        "norad_id": 34412,
        "name": "COSMOS 2251 DEB",
        "group": "cosmos-2251-debris",
        "lat": 27.090861829016216,
        "lon": -54.95312484171463,
        "alt_km": 599.3792807651816,
        "timestamp": "2025-12-27T15:27:11.588677+00:00",
        "meta_object_name": "COSMOS 2251 DEB",
        "meta_object_id": "1993-036RD",
        "meta_epoch": "2025-12-27T03:42:55.901952",
        "meta_mean_motion": 14.4733154,
        "meta_eccentricity": 0.01877382,
        "meta_inclination": 73.9484,
        "meta_ra_of_asc_node": 297.4976,
        "meta_arg_of_pericenter": 29.2654,
        "meta_mean_anomaly": 331.8863,
        "meta_ephemeris_type": 0,
        "meta_classification_type": "U",
        "meta_norad_cat_id": 34412,
        "meta_element_set_no": 999,
        "meta_rev_at_epoch": 87859,
        "meta_bstar": 0.0021936593,
        "meta_mean_motion_dot": 0.0001001,
        "meta_mean_motion_ddot": 0,
        "tle_line1": "1 34412U 93036RD  25361.15481368  .00010010  00000+0  21937-2 0  9993",
        "tle_line2": "2 34412  73.9484 297.4976 0187738  29.2654 331.8863 14.47331540878598"
      },
      "geometry": {
        "type": "Point",
        "coordinates": [
          -54.95312484171463,
          27.090861829016216
        ]
      }
    },
    {
      "type": "Feature",
      "properties": {
        "norad_id": 34413,
        "name": "COSMOS 2251 DEB",
        "group": "cosmos-2251-debris",
        "lat": -74.0102034343977,
        "lon": 149.92504085344103,
        "alt_km": 751.802620288393,
        "timestamp": "2025-12-27T15:27:11.588688+00:00",
        "meta_object_name": "COSMOS 2251 DEB",
        "meta_object_id": "1993-036RE",
        "meta_epoch": "2025-12-27T03:08:44.582784",
        "meta_mean_motion": 14.29203551,
        "meta_eccentricity": 0.00909419,
        "meta_inclination": 74.0303,
        "meta_ra_of_asc_node": 238.739,
        "meta_arg_of_pericenter": 312.5624,
        "meta_mean_anomaly": 201.2628,
        "meta_ephemeris_type": 0,
        "meta_classification_type": "U",
        "meta_norad_cat_id": 34413,
        "meta_element_set_no": 999,
        "meta_rev_at_epoch": 87336,
        "meta_bstar": 0.0014234163,
        "meta_mean_motion_dot": 3.756e-05,
        "meta_mean_motion_ddot": 0,
        "tle_line1": "1 34413U 93036RE  25361.13107156  .00003756  00000+0  14234-2 0  9993",
        "tle_line2": "2 34413  74.0303 238.7390 0090941 312.5624 201.2628 14.29203551873362"
      },
      "geometry": {
        "type": "Point",
        "coordinates": [
          149.92504085344103,
          -74.0102034343977
        ]
      }
    },
    {
      "type": "Feature",
      "properties": {
        "norad_id": 34420,
        "name": "COSMOS 2251 DEB",
        "group": "cosmos-2251-debris",
        "lat": -52.23791038674593,
        "lon": 53.43874915281695,
        "alt_km": 700.3210333879351,
        "timestamp": "2025-12-27T15:27:11.588698+00:00",
        "meta_object_name": "COSMOS 2251 DEB",
        "meta_object_id": "1993-036RM",
        "meta_epoch": "2025-12-27T07:51:27.397152",
        "meta_mean_motion": 14.68340437,
        "meta_eccentricity": 0.01059281,
        "meta_inclination": 74.0332,
        "meta_ra_of_asc_node": 75.7424,
        "meta_arg_of_pericenter": 193.396,
        "meta_mean_anomaly": 237.9812,
        "meta_ephemeris_type": 0,
        "meta_classification_type": "U",
        "meta_norad_cat_id": 34420,
        "meta_element_set_no": 999,
        "meta_rev_at_epoch": 89984,
        "meta_bstar": 0.0002422743,
        "meta_mean_motion_dot": 1.488e-05,
        "meta_mean_motion_ddot": 0,
        "tle_line1": "1 34420U 93036RM  25361.32740043  .00001488  00000+0  24227-3 0  9994",
        "tle_line2": "2 34420  74.0332  75.7424 0105928 193.3960 237.9812 14.68340437899849"
      },
      "geometry": {
        "type": "Point",
        "coordinates": [
          53.43874915281695,
          -52.23791038674593
        ]
      }
    }
  ]
}